[{"OBJECT_NAME":"STARLINK-33655","OBJECT_ID":"2025-065AB","EPOCH":"2026-03-09T03:43:35.516352","MEAN_MOTION":15.27616532,"ECCENTRICITY":0.0001034,"INCLINATION":43.0028,"RA_OF_ASC_NODE":110.4269,"ARG_OF_PERICENTER":260.1414,"MEAN_ANOMALY":99.9321,"EPHEMERIS_TYPE":0,"CLASSIFICATION_TYPE":"U","NORAD_CAT_ID":63424,"ELEMENT_SET_NO":999,"REV_AT_EPOCH":5275,"BSTAR":0.0015173935,"MEAN_MOTION_DOT":0.00041777,"MEAN_MOTION_DDOT":0},{"OBJECT_NAME":"ELECTRON KICK STAGE R\/B","OBJECT_ID":"2021-004B","EPOCH":"2026-03-09T21:16:05.300544","MEAN_MOTION":14.42553081,"ECCENTRICITY":0.04246143,"INCLINATION":90.0967,"RA_OF_ASC_NODE":240.1441,"ARG_OF_PERICENTER":240.2414,"MEAN_ANOMALY":115.592,"EPHEMERIS_TYPE":0,"CLASSIFICATION_TYPE":"U","NORAD_CAT_ID":47347,"ELEMENT_SET_NO":999,"REV_AT_EPOCH":26720,"BSTAR":0.00099724223,"MEAN_MOTION_DOT":0.00010097,"MEAN_MOTION_DDOT":0}]
